start=new Date('2021-10-06T00:00:00.000Z').valueOf();
sats=[{"ELEMENT_SET_NO":"999","DECAY_DATE":null,"MEAN_MOTION_DDOT":"0.0000000000000","TIME_SYSTEM":"UTC","NORAD_CAT_ID":"44932","OBJECT_TYPE":"PAYLOAD","MEAN_MOTION":"15.06394658","RA_OF_ASC_NODE":"42.5779","CLASSIFICATION_TYPE":"U","PERIOD":"95.592","EPHEMERIS_TYPE":"0","MEAN_ANOMALY":"263.2877","REF_FRAME":"TEME","SEMIMAJOR_AXIS":"6925.365","GP_ID":"186275799","PERIAPSIS":"546.182","TLE_LINE1":"1 44932U 20001U   21278.36896673  .00001172  00000-0  97565-4 0  9990","APOAPSIS":"548.278","CENTER_NAME":"EARTH","BSTAR":"0.00009756500000","COUNTRY_CODE":"US","EPOCH":"2021-10-05T08:51:18.725472","MEAN_MOTION_DOT":"0.00001172","ECCENTRICITY":"0.00015130","RCS_SIZE":"LARGE","REV_AT_EPOCH":"9746","MEAN_ELEMENT_THEORY":"SGP4","TLE_LINE2":"2 44932  53.0542  42.5779 0001513  96.8284 263.2877 15.06394658 97462","LAUNCH_DATE":"2020-01-07","FILE":"3145988","OBJECT_NAME":"STARLINK-1130","SITE":"AFETR","ARG_OF_PERICENTER":"96.8284","INCLINATION":"53.0542","OBJECT_ID":"2020-001U"},{"TLE_LINE2":"2 44933  53.0553  42.7509 0001233  98.9843 261.1286 15.06396997 97516","LAUNCH_DATE":"2020-01-07","FILE":"3145988","REV_AT_EPOCH":"9751","RCS_SIZE":"LARGE","MEAN_ELEMENT_THEORY":"SGP4","COUNTRY_CODE":"US","EPOCH":"2021-10-05T07:52:54.775200","MEAN_MOTION_DOT":"0.00001335","ECCENTRICITY":"0.00012330","BSTAR":"0.00010848000000","INCLINATION":"53.0553","OBJECT_ID":"2020-001V","SITE":"AFETR","ARG_OF_PERICENTER":"98.9843","OBJECT_NAME":"STARLINK-1144","MEAN_MOTION":"15.06396997","RA_OF_ASC_NODE":"42.7509","CLASSIFICATION_TYPE":"U","TIME_SYSTEM":"UTC","NORAD_CAT_ID":"44933","OBJECT_TYPE":"PAYLOAD","MEAN_MOTION_DDOT":"0.0000000000000","DECAY_DATE":null,"ELEMENT_SET_NO":"999","PERIAPSIS":"546.369","TLE_LINE1":"1 44933U 20001V   21278.32841175  .00001335  00000-0  10848-3 0  9993","APOAPSIS":"548.077","CENTER_NAME":"EARTH","MEAN_ANOMALY":"261.1286","REF_FRAME":"TEME","SEMIMAJOR_AXIS":"6925.358","GP_ID":"186274547","PERIOD":"95.592","EPHEMERIS_TYPE":"0"},{"PERIOD":"95.594","EPHEMERIS_TYPE":"0","REF_FRAME":"TEME","MEAN_ANOMALY":"255.7265","GP_ID":"186274797","SEMIMAJOR_AXIS":"6925.416","PERIAPSIS":"546.502","APOAPSIS":"548.060","CENTER_NAME":"EARTH","TLE_LINE1":"1 44934U 20001W   21278.40769057  .00004994  00000-0  35410-3 0  9997","ELEMENT_SET_NO":"999","DECAY_DATE":null,"MEAN_MOTION_DDOT":"0.0000000000000","NORAD_CAT_ID":"44934","TIME_SYSTEM":"UTC","OBJECT_TYPE":"PAYLOAD","MEAN_MOTION":"15.06377921","RA_OF_ASC_NODE":"22.3955","CLASSIFICATION_TYPE":"U","OBJECT_NAME":"STARLINK-1071","ARG_OF_PERICENTER":"104.3848","SITE":"AFETR","OBJECT_ID":"2020-001W","INCLINATION":"53.0555","BSTAR":"0.00035410000000","EPOCH":"2021-10-05T09:47:04.465248","COUNTRY_CODE":"US","ECCENTRICITY":"0.00011250","MEAN_MOTION_DOT":"0.00004994","REV_AT_EPOCH":"9651","RCS_SIZE":"LARGE","MEAN_ELEMENT_THEORY":"SGP4","LAUNCH_DATE":"2020-01-07","TLE_LINE2":"2 44934  53.0555  22.3955 0001125 104.3848 255.7265 15.06377921 96516","FILE":"3145988"},{"OBJECT_NAME":"STARLINK-1072","SITE":"AFETR","ARG_OF_PERICENTER":"34.7346","INCLINATION":"53.0539","OBJECT_ID":"2020-001X","BSTAR":"0.00013986000000","MEAN_MOTION_DOT":"0.00017675","ECCENTRICITY":"0.00023440","COUNTRY_CODE":"US","EPOCH":"2021-10-05T18:02:38.658048","MEAN_ELEMENT_THEORY":"SGP4","REV_AT_EPOCH":"9681","RCS_SIZE":"LARGE","FILE":"3146344","LAUNCH_DATE":"2020-01-07","TLE_LINE2":"2 44935  53.0539   3.5409 0002344  34.7346 325.3824 15.71470278 96816","EPHEMERIS_TYPE":"0","PERIOD":"91.634","GP_ID":"186303660","SEMIMAJOR_AXIS":"6732.831","MEAN_ANOMALY":"325.3824","REF_FRAME":"TEME","TLE_LINE1":"1 44935U 20001X   21278.75183632  .00017675  00000-0  13986-3 0  9999","APOAPSIS":"356.274","CENTER_NAME":"EARTH","PERIAPSIS":"353.118","DECAY_DATE":null,"ELEMENT_SET_NO":"999","MEAN_MOTION_DDOT":"0.0000000000000","OBJECT_TYPE":"PAYLOAD","TIME_SYSTEM":"UTC","NORAD_CAT_ID":"44935","CLASSIFICATION_TYPE":"U","RA_OF_ASC_NODE":"3.5409","MEAN_MOTION":"15.71470278"},{"INCLINATION":"53.0601","OBJECT_ID":"2020-001Y","SITE":"AFETR","ARG_OF_PERICENTER":"48.5796","OBJECT_NAME":"STARLINK-1078","LAUNCH_DATE":"2020-01-07","TLE_LINE2":"2 44936  53.0601 319.9481 0006625  48.5796 311.5796 15.85943268 97432","FILE":"3146344","RCS_SIZE":"LARGE","REV_AT_EPOCH":"9743","MEAN_ELEMENT_THEORY":"SGP4","COUNTRY_CODE":"US","EPOCH":"2021-10-05T21:59:44.096640","MEAN_MOTION_DOT":"0.00493431","ECCENTRICITY":"0.00066250","BSTAR":"0.00186000000000","PERIAPSIS":"309.239","TLE_LINE1":"1 44936U 20001Y   21278.91648260  .00493431  00000-0  18600-2 0  9996","CENTER_NAME":"EARTH","APOAPSIS":"318.105","MEAN_ANOMALY":"311.5796","REF_FRAME":"TEME","GP_ID":"186304912","SEMIMAJOR_AXIS":"6691.807","PERIOD":"90.798","EPHEMERIS_TYPE":"0","MEAN_MOTION":"15.85943268","RA_OF_ASC_NODE":"319.9481","CLASSIFICATION_TYPE":"U","TIME_SYSTEM":"UTC","NORAD_CAT_ID":"44936","OBJECT_TYPE":"PAYLOAD","MEAN_MOTION_DDOT":"0.0000000000000","DECAY_DATE":null,"ELEMENT_SET_NO":"999"},{"GP_ID":"186274048","SEMIMAJOR_AXIS":"6925.366","REF_FRAME":"TEME","MEAN_ANOMALY":"254.0133","CENTER_NAME":"EARTH","APOAPSIS":"548.132","TLE_LINE1":"1 44937U 20001Z   21278.45189352  .00001744  00000-0  13597-3 0  9991","PERIAPSIS":"546.330","EPHEMERIS_TYPE":"0","PERIOD":"95.592","OBJECT_TYPE":"PAYLOAD","NORAD_CAT_ID":"44937","TIME_SYSTEM":"UTC","RA_OF_ASC_NODE":"22.2051","CLASSIFICATION_TYPE":"U","MEAN_MOTION":"15.06394400","ELEMENT_SET_NO":"999","DECAY_DATE":null,"MEAN_MOTION_DDOT":"0.0000000000000","OBJECT_ID":"2020-001Z","INCLINATION":"53.0551","OBJECT_NAME":"STARLINK-1079","ARG_OF_PERICENTER":"106.1000","SITE":"AFETR","MEAN_ELEMENT_THEORY":"SGP4","RCS_SIZE":"LARGE","REV_AT_EPOCH":"9652","FILE":"3145988","TLE_LINE2":"2 44937  53.0551  22.2051 0001301 106.1000 254.0133 15.06394400 96525","LAUNCH_DATE":"2020-01-07","BSTAR":"0.00013597000000","ECCENTRICITY":"0.00013010","MEAN_MOTION_DOT":"0.00001744","EPOCH":"2021-10-05T10:50:43.600128","COUNTRY_CODE":"US"},{"OBJECT_ID":"2020-001AA","INCLINATION":"53.0556","ARG_OF_PERICENTER":"110.8862","SITE":"AFETR","OBJECT_NAME":"STARLINK-1082","FILE":"3146344","TLE_LINE2":"2 44938  53.0556  20.8550 0001354 110.8862 249.2272 15.06392055 96563","LAUNCH_DATE":"2020-01-07","MEAN_ELEMENT_THEORY":"SGP4","REV_AT_EPOCH":"9656","RCS_SIZE":"LARGE","ECCENTRICITY":"0.00013540","MEAN_MOTION_DOT":"0.00000256","EPOCH":"2021-10-05T18:00:40.021344","COUNTRY_CODE":"US","BSTAR":"0.00003611300000","CENTER_NAME":"EARTH","APOAPSIS":"548.176","TLE_LINE1":"1 44938U 20001AA  21278.75046321  .00000256  00000-0  36113-4 0  9990","PERIAPSIS":"546.300","GP_ID":"186303410","SEMIMAJOR_AXIS":"6925.373","REF_FRAME":"TEME","MEAN_ANOMALY":"249.2272","EPHEMERIS_TYPE":"0","PERIOD":"95.593","CLASSIFICATION_TYPE":"U","RA_OF_ASC_NODE":"20.8550","MEAN_MOTION":"15.06392055","OBJECT_TYPE":"PAYLOAD","NORAD_CAT_ID":"44938","TIME_SYSTEM":"UTC","MEAN_MOTION_DDOT":"0.0000000000000","ELEMENT_SET_NO":"999","DECAY_DATE":null},{"OBJECT_ID":"2020-001AB","INCLINATION":"53.0550","OBJECT_NAME":"STARLINK-1083","ARG_OF_PERICENTER":"110.2912","SITE":"AFETR","RCS_SIZE":"LARGE","REV_AT_EPOCH":"9649","MEAN_ELEMENT_THEORY":"SGP4","LAUNCH_DATE":"2020-01-07","TLE_LINE2":"2 44939  53.0550  22.9172 0001289 110.2912 249.8216 15.06392625 96497","FILE":"3145988","BSTAR":"0.00004041000000","EPOCH":"2021-10-05T07:02:30.529824","COUNTRY_CODE":"US","ECCENTRICITY":"0.00012890","MEAN_MOTION_DOT":"0.00000320","REF_FRAME":"TEME","MEAN_ANOMALY":"249.8216","SEMIMAJOR_AXIS":"6925.371","GP_ID":"186275050","PERIAPSIS":"546.343","CENTER_NAME":"EARTH","APOAPSIS":"548.129","TLE_LINE1":"1 44939U 20001AB  21278.29340891  .00000320  00000-0  40410-4 0  9996","PERIOD":"95.593","EPHEMERIS_TYPE":"0","NORAD_CAT_ID":"44939","TIME_SYSTEM":"UTC","OBJECT_TYPE":"PAYLOAD","MEAN_MOTION":"15.06392625","RA_OF_ASC_NODE":"22.9172","CLASSIFICATION_TYPE":"U","ELEMENT_SET_NO":"999","DECAY_DATE":null,"MEAN_MOTION_DDOT":"0.0000000000000"},{"ARG_OF_PERICENTER":"104.3976","SITE":"AFETR","OBJECT_NAME":"STARLINK-1091","OBJECT_ID":"2020-001AC","INCLINATION":"53.0555","EPOCH":"2021-10-05T10:29:30.293088","COUNTRY_CODE":"US","ECCENTRICITY":"0.00011820","MEAN_MOTION_DOT":"0.00001718","BSTAR":"0.00013426000000","TLE_LINE2":"2 44940  53.0555  22.2614 0001182 104.3976 255.7144 15.06387702 96513","LAUNCH_DATE":"2020-01-07","FILE":"3145988","RCS_SIZE":"LARGE","REV_AT_EPOCH":"9651","MEAN_ELEMENT_THEORY":"SGP4","PERIOD":"95.593","EPHEMERIS_TYPE":"0","PERIAPSIS":"546.433","APOAPSIS":"548.070","CENTER_NAME":"EARTH","TLE_LINE1":"1 44940U 20001AC  21278.43715617  .00001718  00000-0  13426-3 0  9994","REF_FRAME":"TEME","MEAN_ANOMALY":"255.7144","SEMIMAJOR_AXIS":"6925.386","GP_ID":"186275800","MEAN_MOTION_DDOT":"0.0000000000000","DECAY_DATE":null,"ELEMENT_SET_NO":"999","MEAN_MOTION":"15.06387702","CLASSIFICATION_TYPE":"U","RA_OF_ASC_NODE":"22.2614","NORAD_CAT_ID":"44940","TIME_SYSTEM":"UTC","OBJECT_TYPE":"PAYLOAD"},{"DECAY_DATE":null,"ELEMENT_SET_NO":"999","MEAN_MOTION_DDOT":"0.0000000000000","NORAD_CAT_ID":"44941","TIME_SYSTEM":"UTC","OBJECT_TYPE":"PAYLOAD","MEAN_MOTION":"15.06384858","CLASSIFICATION_TYPE":"U","RA_OF_ASC_NODE":"20.6734","PERIOD":"95.593","EPHEMERIS_TYPE":"0","REF_FRAME":"TEME","MEAN_ANOMALY":"263.1746","SEMIMAJOR_AXIS":"6925.395","GP_ID":"186305163","PERIAPSIS":"546.484","CENTER_NAME":"EARTH","APOAPSIS":"548.036","TLE_LINE1":"1 44941U 20001AD  21278.79101383  .00000157  00000-0  29418-4 0  9998","BSTAR":"0.00002941800000","EPOCH":"2021-10-05T18:59:03.594912","COUNTRY_CODE":"US","ECCENTRICITY":"0.00011210","MEAN_MOTION_DOT":"0.00000157","RCS_SIZE":"LARGE","REV_AT_EPOCH":"9657","MEAN_ELEMENT_THEORY":"SGP4","TLE_LINE2":"2 44941  53.0555  20.6734 0001121  96.9370 263.1746 15.06384858 96572","LAUNCH_DATE":"2020-01-07","FILE":"3146344","OBJECT_NAME":"STARLINK-1094","ARG_OF_PERICENTER":"96.9370","SITE":"AFETR","OBJECT_ID":"2020-001AD","INCLINATION":"53.0555"}];
